{
  "type": "FeatureCollection",
  "features": [
    {
      "type": "Feature",
      "properties": {
        "norad_id": 29945,
        "name": "FENGYUN 1C DEB",
        "group": "fengyun-1c-debris",
        "lat": -34.02815532473131,
        "lon": 25.760750801862812,
        "alt_km": 858.8511372740722,
        "timestamp": "2025-12-22T09:53:37.674148+00:00",
        "meta_object_name": "FENGYUN 1C DEB",
        "meta_object_id": "1999-025JT",
        "meta_epoch": "2025-12-21T19:30:24.967008",
        "meta_mean_motion": 14.05577015,
        "meta_eccentricity": 0.0030496,
        "meta_inclination": 98.7911,
        "meta_ra_of_asc_node": 19.1817,
        "meta_arg_of_pericenter": 336.7252,
        "meta_mean_anomaly": 197.349,
        "meta_ephemeris_type": 0,
        "meta_classification_type": "U",
        "meta_norad_cat_id": 29945,
        "meta_element_set_no": 999,
        "meta_rev_at_epoch": 97105,
        "meta_bstar": 0.00020874,
        "meta_mean_motion_dot": 2.98e-06,
        "meta_mean_motion_ddot": 0,
        "tle_line1": "1 29945U 99025JT  25355.81278897  .00000298  00000+0  20874-3 0  9996",
        "tle_line2": "2 29945  98.7911  19.1817 0030496 336.7252 197.3490 14.05577015971053"
      },
      "geometry": {
        "type": "Point",
        "coordinates": [
          25.760750801862812,
          -34.02815532473131
        ]
      }
    },
    {
      "type": "Feature",
      "properties": {
        "norad_id": 29946,
        "name": "FENGYUN 1C DEB",
        "group": "fengyun-1c-debris",
        "lat": 77.6770196209984,
        "lon": -56.638793788541385,
        "alt_km": 891.2194123250929,
        "timestamp": "2025-12-22T09:53:37.674157+00:00",
        "meta_object_name": "FENGYUN 1C DEB",
        "meta_object_id": "1999-025JU",
        "meta_epoch": "2025-12-21T21:53:55.336992",
        "meta_mean_motion": 14.08263066,
        "meta_eccentricity": 0.0080268,
        "meta_inclination": 98.7804,
        "meta_ra_of_asc_node": 347.906,
        "meta_arg_of_pericenter": 317.5476,
        "meta_mean_anomaly": 110.6108,
        "meta_ephemeris_type": 0,
        "meta_classification_type": "U",
        "meta_norad_cat_id": 29946,
        "meta_element_set_no": 999,
        "meta_rev_at_epoch": 97176,
        "meta_bstar": 0.00025616,
        "meta_mean_motion_dot": 4.07e-06,
        "meta_mean_motion_ddot": 0,
        "tle_line1": "1 29946U 99025JU  25355.91244603  .00000407  00000+0  25616-3 0  9997",
        "tle_line2": "2 29946  98.7804 347.9060 0080268 317.5476 110.6108 14.08263066971767"
      },
      "geometry": {
        "type": "Point",
        "coordinates": [
          -56.638793788541385,
          77.6770196209984
        ]
      }
    },
    {
      "type": "Feature",
      "properties": {
        "norad_id": 29947,
        "name": "FENGYUN 1C DEB",
        "group": "fengyun-1c-debris",
        "lat": -59.3971036016637,
        "lon": -168.56546197391197,
        "alt_km": 914.9687937447452,
        "timestamp": "2025-12-22T09:53:37.674167+00:00",
        "meta_object_name": "FENGYUN 1C DEB",
        "meta_object_id": "1999-025JV",
        "meta_epoch": "2025-12-22T02:13:36.535008",
        "meta_mean_motion": 14.03080104,
        "meta_eccentricity": 0.0041017,
        "meta_inclination": 98.8369,
        "meta_ra_of_asc_node": 26.3735,
        "meta_arg_of_pericenter": 95.1488,
        "meta_mean_anomaly": 332.3929,
        "meta_ephemeris_type": 0,
        "meta_classification_type": "U",
        "meta_norad_cat_id": 29947,
        "meta_element_set_no": 999,
        "meta_rev_at_epoch": 96881,
        "meta_bstar": 0.00029625,
        "meta_mean_motion_dot": 4.22e-06,
        "meta_mean_motion_ddot": 0,
        "tle_line1": "1 29947U 99025JV  25356.09278397  .00000422  00000+0  29625-3 0  9996",
        "tle_line2": "2 29947  98.8369  26.3735 0041017  95.1488 332.3929 14.03080104968814"
      },
      "geometry": {
        "type": "Point",
        "coordinates": [
          -168.56546197391197,
          -59.3971036016637
        ]
      }
    },
    {
      "type": "Feature",
      "properties": {
        "norad_id": 29948,
        "name": "FENGYUN 1C DEB",
        "group": "fengyun-1c-debris",
        "lat": -34.91304219566781,
        "lon": 156.11987358231534,
        "alt_km": 818.401372411211,
        "timestamp": "2025-12-22T09:53:37.674232+00:00",
        "meta_object_name": "FENGYUN 1C DEB",
        "meta_object_id": "1999-025JW",
        "meta_epoch": "2025-12-21T18:21:25.599168",
        "meta_mean_motion": 14.06197235,
        "meta_eccentricity": 0.0084042,
        "meta_inclination": 98.8248,
        "meta_ra_of_asc_node": 341.7135,
        "meta_arg_of_pericenter": 208.0194,
        "meta_mean_anomaly": 331.7918,
        "meta_ephemeris_type": 0,
        "meta_classification_type": "U",
        "meta_norad_cat_id": 29948,
        "meta_element_set_no": 999,
        "meta_rev_at_epoch": 97103,
        "meta_bstar": 3.0912e-05,
        "meta_mean_motion_dot": 9e-08,
        "meta_mean_motion_ddot": 0,
        "tle_line1": "1 29948U 99025JW  25355.76487962  .00000009  00000+0  30912-4 0  9993",
        "tle_line2": "2 29948  98.8248 341.7135 0084042 208.0194 331.7918 14.06197235971039"
      },
      "geometry": {
        "type": "Point",
        "coordinates": [
          156.11987358231534,
          -34.91304219566781
        ]
      }
    },
    {
      "type": "Feature",
      "properties": {
        "norad_id": 29949,
        "name": "FENGYUN 1C DEB",
        "group": "fengyun-1c-debris",
        "lat": -9.958421660824017,
        "lon": -169.75758912128646,
        "alt_km": 873.5117260478801,
        "timestamp": "2025-12-22T09:53:37.674245+00:00",
        "meta_object_name": "FENGYUN 1C DEB",
        "meta_object_id": "1999-025JX",
        "meta_epoch": "2025-12-21T23:03:17.961120",
        "meta_mean_motion": 14.06828593,
        "meta_eccentricity": 0.0023029,
        "meta_inclination": 98.7616,
        "meta_ra_of_asc_node": 11.3566,
        "meta_arg_of_pericenter": 278.5092,
        "meta_mean_anomaly": 145.7336,
        "meta_ephemeris_type": 0,
        "meta_classification_type": "U",
        "meta_norad_cat_id": 29949,
        "meta_element_set_no": 999,
        "meta_rev_at_epoch": 97237,
        "meta_bstar": -4.2399e-05,
        "meta_mean_motion_dot": -1.14e-06,
        "meta_mean_motion_ddot": 0,
        "tle_line1": "1 29949U 99025JX  25355.96062455 -.00000114  00000+0 -42399-4 0  9993",
        "tle_line2": "2 29949  98.7616  11.3566 0023029 278.5092 145.7336 14.06828593972376"
      },
      "geometry": {
        "type": "Point",
        "coordinates": [
          -169.75758912128646,
          -9.958421660824017
        ]
      }
    },
    {
      "type": "Feature",
      "properties": {
        "norad_id": 29950,
        "name": "FENGYUN 1C DEB",
        "group": "fengyun-1c-debris",
        "lat": 32.03167166394301,
        "lon": -147.25836828153808,
        "alt_km": 846.8666609713091,
        "timestamp": "2025-12-22T09:53:37.674256+00:00",
        "meta_object_name": "FENGYUN 1C DEB",
        "meta_object_id": "1999-025JY",
        "meta_epoch": "2025-12-22T02:28:41.912832",
        "meta_mean_motion": 14.10338212,
        "meta_eccentricity": 0.0032653,
        "meta_inclination": 98.7399,
        "meta_ra_of_asc_node": 26.9185,
        "meta_arg_of_pericenter": 214.9946,
        "meta_mean_anomaly": 164.9237,
        "meta_ephemeris_type": 0,
        "meta_classification_type": "U",
        "meta_norad_cat_id": 29950,
        "meta_element_set_no": 999,
        "meta_rev_at_epoch": 97423,
        "meta_bstar": 0.00014293,
        "meta_mean_motion_dot": 2.12e-06,
        "meta_mean_motion_ddot": 0,
        "tle_line1": "1 29950U 99025JY  25356.10326288  .00000212  00000+0  14293-3 0  9997",
        "tle_line2": "2 29950  98.7399  26.9185 0032653 214.9946 164.9237 14.10338212974239"
      },
      "geometry": {
        "type": "Point",
        "coordinates": [
          -147.25836828153808,
          32.03167166394301
        ]
      }
    },
    {
      "type": "Feature",
      "properties": {
        "norad_id": 29953,
        "name": "FENGYUN 1C DEB",
        "group": "fengyun-1c-debris",
        "lat": -58.96309724778515,
        "lon": -1.8736667074247615,
        "alt_km": 893.341548477727,
        "timestamp": "2025-12-22T09:53:37.674267+00:00",
        "meta_object_name": "FENGYUN 1C DEB",
        "meta_object_id": "1999-025KB",
        "meta_epoch": "2025-12-21T22:14:18.252960",
        "meta_mean_motion": 13.90856892,
        "meta_eccentricity": 0.0105639,
        "meta_inclination": 98.9383,
        "meta_ra_of_asc_node": 342.4976,
        "meta_arg_of_pericenter": 241.3718,
        "meta_mean_anomaly": 147.1683,
        "meta_ephemeris_type": 0,
        "meta_classification_type": "U",
        "meta_norad_cat_id": 29953,
        "meta_element_set_no": 999,
        "meta_rev_at_epoch": 95990,
        "meta_bstar": 0.00034395,
        "meta_mean_motion_dot": 4.07e-06,
        "meta_mean_motion_ddot": 0,
        "tle_line1": "1 29953U 99025KB  25355.92660015  .00000407  00000+0  34395-3 0  9999",
        "tle_line2": "2 29953  98.9383 342.4976 0105639 241.3718 147.1683 13.90856892959908"
      },
      "geometry": {
        "type": "Point",
        "coordinates": [
          -1.8736667074247615,
          -58.96309724778515
        ]
      }
    }
  ]
}